FLOCK 4G-8              
1 62613U 25009E   26068.72381419  .00013559  00000+0  50438-3 0  9996
2 62613  97.4045 151.2834 0003050 315.2538  44.8455 15.27623414 63721
STARLINK-34150          
1 63998U 25101E   26068.17269884  .00035860  00000+0  13070-2 0  9995
2 63998  43.0019   1.1076 0000695 271.6630  88.4142 15.27562634 46978
